{"type": "FeatureCollection", "features": [ {"type": "Feature", "properties": {"norad_id": 37966, "name": "COSMOS 2251 DEB", "group": "cosmos-2251-debris", "lat": 66.00402103416101, "lon": 7.065582141361322, "alt_km": 514.4358147988096, "timestamp": "2025-12-14T07:33:19.877225+00:00", "meta": {"OBJECT_NAME": "COSMOS 2251 DEB", "OBJECT_ID": "1993-036BPR", "EPOCH": "2025-12-13T08:51:38.453184", "MEAN_MOTION": 15.12754556, "ECCENTRICITY": 0.00088035, "INCLINATION": 73.9781, "RA_OF_ASC_NODE": 229.2381, "ARG_OF_PERICENTER": 105.8293, "MEAN_ANOMALY": 254.3871, "EPHEMERIS_TYPE": 0, "CLASSIFICATION_TYPE": "U", "NORAD_CAT_ID": 37966, "ELEMENT_SET_NO": 999, "REV_AT_EPOCH": 85352, "BSTAR": 0.0051051315, "MEAN_MOTION_DOT": 0.00090719, "MEAN_MOTION_DDOT": 0}, "tle": {"line1": "1 37966U 93036BPR 25347.36919506  .00090719  00000+0  51051-2 0  9991", "line2": "2 37966  73.9781 229.2381 0008803 105.8293 254.3871 15.12754556853526"}}, "geometry": {"type": "Point", "coordinates": [7.065582141361322, 66.00402103416101]}}, {"type": "Feature", "properties": {"norad_id": 37967, "name": "COSMOS 2251 DEB", "group": "cosmos-2251-debris", "lat": 73.60881096553553, "lon": -148.48912235677804, "alt_km": 856.2738873592252, "timestamp": "2025-12-14T07:33:19.877236+00:00", "meta": {"OBJECT_NAME": "COSMOS 2251 DEB", "OBJECT_ID": "1993-036BPS", "EPOCH": "2025-12-12T16:48:51.802848", "MEAN_MOTION": 14.40515653, "ECCENTRICITY": 0.01509346, "INCLINATION": 74.0143, "RA_OF_ASC_NODE": 137.4555, "ARG_OF_PERICENTER": 276.2536, "MEAN_ANOMALY": 82.1445, "EPHEMERIS_TYPE": 0, "CLASSIFICATION_TYPE": "U", "NORAD_CAT_ID": 37967, "ELEMENT_SET_NO": 999, "REV_AT_EPOCH": 64735, "BSTAR": 0.0023064533, "MEAN_MOTION_DOT": 8.381e-05, "MEAN_MOTION_DDOT": 0}, "tle": {"line1": "1 37967U 93036BPS 25346.70059957  .00008381  00000+0  23065-2 0  9992", "line2": "2 37967  74.0143 137.4555 0150934 276.2536  82.1445 14.40515653647359"}}, "geometry": {"type": "Point", "coordinates": [-148.48912235677804, 73.60881096553553]}}, {"type": "Feature", "properties": {"norad_id": 37968, "name": "COSMOS 2251 DEB", "group": "cosmos-2251-debris", "lat": -36.25332071846296, "lon": 100.09328760902739, "alt_km": 624.758117594497, "timestamp": "2025-12-14T07:33:19.877247+00:00", "meta": {"OBJECT_NAME": "COSMOS 2251 DEB", "OBJECT_ID": "1993-036BPT", "EPOCH": "2025-12-13T01:47:19.904352", "MEAN_MOTION": 15.00631404, "ECCENTRICITY": 0.00804189, "INCLINATION": 74.0008, "RA_OF_ASC_NODE": 270.4748, "ARG_OF_PERICENTER": 26.0645, "MEAN_ANOMALY": 334.4556, "EPHEMERIS_TYPE": 0, "CLASSIFICATION_TYPE": "U", "NORAD_CAT_ID": 37968, "ELEMENT_SET_NO": 999, "REV_AT_EPOCH": 60224, "BSTAR": 0.001541289, "MEAN_MOTION_DOT": 0.00020898, "MEAN_MOTION_DDOT": 0}, "tle": {"line1": "1 37968U 93036BPT 25347.07453593  .00020898  00000+0  15413-2 0  9993", "line2": "2 37968  74.0008 270.4748 0080418  26.0645 334.4556 15.00631404602248"}}, "geometry": {"type": "Point", "coordinates": [100.09328760902739, -36.25332071846296]}}, {"type": "Feature", "properties": {"norad_id": 37971, "name": "COSMOS 2251 DEB", "group": "cosmos-2251-debris", "lat": -21.112406717857468, "lon": -134.8533527685254, "alt_km": 691.1661392501865, "timestamp": "2025-12-14T07:33:19.877257+00:00", "meta": {"OBJECT_NAME": "COSMOS 2251 DEB", "OBJECT_ID": "1993-036BPW", "EPOCH": "2025-12-11T10:40:32.065248", "MEAN_MOTION": 14.48615122, "ECCENTRICITY": 0.00674117, "INCLINATION": 73.9935, "RA_OF_ASC_NODE": 44.173, "ARG_OF_PERICENTER": 183.4136, "MEAN_ANOMALY": 176.6574, "EPHEMERIS_TYPE": 0, "CLASSIFICATION_TYPE": "U", "NORAD_CAT_ID": 37971, "ELEMENT_SET_NO": 999, "REV_AT_EPOCH": 60659, "BSTAR": 0.0043286348, "MEAN_MOTION_DOT": 0.00016772, "MEAN_MOTION_DDOT": 0}, "tle": {"line1": "1 37971U 93036BPW 25345.44481557  .00016772  00000+0  43286-2 0  9992", "line2": "2 37971  73.9935  44.1730 0067411 183.4136 176.6574 14.48615122606595"}}, "geometry": {"type": "Point", "coordinates": [-134.8533527685254, -21.112406717857468]}}, {"type": "Feature", "properties": {"norad_id": 37975, "name": "COSMOS 2251 DEB", "group": "cosmos-2251-debris", "lat": -59.48868150543858, "lon": 170.11015870274716, "alt_km": 620.7819392837364, "timestamp": "2025-12-14T07:33:19.877267+00:00", "meta": {"OBJECT_NAME": "COSMOS 2251 DEB", "OBJECT_ID": "1993-036BQA", "EPOCH": "2025-12-13T15:48:30.179232", "MEAN_MOTION": 14.76130148, "ECCENTRICITY": 0.00956338, "INCLINATION": 74.0029, "RA_OF_ASC_NODE": 322.2658, "ARG_OF_PERICENTER": 311.4373, "MEAN_ANOMALY": 47.8613, "EPHEMERIS_TYPE": 0, "CLASSIFICATION_TYPE": "U", "NORAD_CAT_ID": 37975, "ELEMENT_SET_NO": 999, "REV_AT_EPOCH": 69759, "BSTAR": 0.0039912819, "MEAN_MOTION_DOT": 0.00029805, "MEAN_MOTION_DDOT": 0}, "tle": {"line1": "1 37975U 93036BQA 25347.65868263  .00029805  00000+0  39913-2 0  9997", "line2": "2 37975  74.0029 322.2658 0095633 311.4373  47.8613 14.76130148697591"}}, "geometry": {"type": "Point", "coordinates": [170.11015870274716, -59.48868150543858]}}, {"type": "Feature", "properties": {"norad_id": 37978, "name": "COSMOS 2251 DEB", "group": "cosmos-2251-debris", "lat": -18.814037419059904, "lon": 79.82269102436403, "alt_km": 302.29980354639156, "timestamp": "2025-12-14T07:33:19.877277+00:00", "meta": {"OBJECT_NAME": "COSMOS 2251 DEB", "OBJECT_ID": "1993-036BQD", "EPOCH": "2025-11-19T05:08:53.100672", "MEAN_MOTION": 15.61137081, "ECCENTRICITY": 0.00148985, "INCLINATION": 74.0238, "RA_OF_ASC_NODE": 142.2198, "ARG_OF_PERICENTER": 140.9849, "MEAN_ANOMALY": 219.2448, "EPHEMERIS_TYPE": 0, "CLASSIFICATION_TYPE": "U", "NORAD_CAT_ID": 37978, "ELEMENT_SET_NO": 999, "REV_AT_EPOCH": 8032, "BSTAR": 0.0043958825, "MEAN_MOTION_DOT": 0.0039117, "MEAN_MOTION_DDOT": 0}, "tle": {"line1": "1 37978U 93036BQD 25323.21450348  .00391170  00000+0  43959-2 0  9999", "line2": "2 37978  74.0238 142.2198 0014898 140.9849 219.2448 15.61137081 80328"}}, "geometry": {"type": "Point", "coordinates": [79.82269102436403, -18.814037419059904]}}, {"type": "Feature", "properties": {"norad_id": 37985, "name": "COSMOS 2251 DEB", "group": "cosmos-2251-debris", "lat": 72.05122433648205, "lon": -34.98928073878187, "alt_km": 757.9349061893136, "timestamp": "2025-12-14T07:33:19.877287+00:00", "meta": {"OBJECT_NAME": "COSMOS 2251 DEB", "OBJECT_ID": "1993-036BQL", "EPOCH": "2025-12-13T11:06:24.185952", "MEAN_MOTION": 14.35483406, "ECCENTRICITY": 0.00208406, "INCLINATION": 74.0254, "RA_OF_ASC_NODE": 264.4092, "ARG_OF_PERICENTER": 26.9436, "MEAN_ANOMALY": 333.2793, "EPHEMERIS_TYPE": 0, "CLASSIFICATION_TYPE": "U", "NORAD_CAT_ID": 37985, "ELEMENT_SET_NO": 999, "REV_AT_EPOCH": 64927, "BSTAR": 8.2613695e-05, "MEAN_MOTION_DOT": 2.12e-06, "MEAN_MOTION_DDOT": 0}, "tle": {"line1": "1 37985U 93036BQL 25347.46277993  .00000212  00000+0  82614-4 0  9990", "line2": "2 37985  74.0254 264.4092 0020840  26.9436 333.2793 14.35483406649273"}}, "geometry": {"type": "Point", "coordinates": [-34.98928073878187, 72.05122433648205]}}, {"type": "Feature", "properties": {"norad_id": 37988, "name": "COSMOS 2251 DEB", "group": "cosmos-2251-debris", "lat": -73.96663985782435, "lon": -62.8969842910876, "alt_km": 708.6829947680008, "timestamp": "2025-12-14T07:33:19.877298+00:00", "meta": {"OBJECT_NAME": "COSMOS 2251 DEB", "OBJECT_ID": "1993-036BQP", "EPOCH": "2025-12-13T02:32:08.304288", "MEAN_MOTION": 14.68869924, "ECCENTRICITY": 0.00633699, "INCLINATION": 74.0635, "RA_OF_ASC_NODE": 23.3163, "ARG_OF_PERICENTER": 60.7739, "MEAN_ANOMALY": 299.9748, "EPHEMERIS_TYPE": 0, "CLASSIFICATION_TYPE": "U", "NORAD_CAT_ID": 37988, "ELEMENT_SET_NO": 999, "REV_AT_EPOCH": 23401, "BSTAR": 0.001172646, "MEAN_MOTION_DOT": 7.043e-05, "MEAN_MOTION_DDOT": 0}, "tle": {"line1": "1 37988U 93036BQP 25347.10565167  .00007043  00000+0  11726-2 0  9990", "line2": "2 37988  74.0635  23.3163 0063369  60.7739 299.9748 14.68869924234014"}}, "geometry": {"type": "Point", "coordinates": [-62.8969842910876, -73.96663985782435]}}, {"type": "Feature", "properties": {"norad_id": 37993, "name": "COSMOS 2251 DEB", "group": "cosmos-2251-debris", "lat": -0.9626495003113043, "lon": 163.6340220828479, "alt_km": 700.841681179144, "timestamp": "2025-12-14T07:33:19.877308+00:00", "meta": {"OBJECT_NAME": "COSMOS 2251 DEB", "OBJECT_ID": "1993-036BQU", "EPOCH": "2025-12-09T05:51:24.736320", "MEAN_MOTION": 14.59845478, "ECCENTRICITY": 0.0022054, "INCLINATION": 74.0217, "RA_OF_ASC_NODE": 173.5884, "ARG_OF_PERICENTER": 262.4751, "MEAN_ANOMALY": 97.3909, "EPHEMERIS_TYPE": 0, "CLASSIFICATION_TYPE": "U", "NORAD_CAT_ID": 37993, "ELEMENT_SET_NO": 999, "REV_AT_EPOCH": 65266, "BSTAR": 0.0017274, "MEAN_MOTION_DOT": 8.27e-05, "MEAN_MOTION_DDOT": 0}, "tle": {"line1": "1 37993U 93036BQU 25343.24403630  .00008270  00000+0  17274-2 0  9990", "line2": "2 37993  74.0217 173.5884 0022054 262.4751  97.3909 14.59845478652667"}}, "geometry": {"type": "Point", "coordinates": [163.6340220828479, -0.9626495003113043]}}, {"type": "Feature", "properties": {"norad_id": 37994, "name": "COSMOS 2251 DEB", "group": "cosmos-2251-debris", "lat": -27.526128753928663, "lon": -95.79854824795913, "alt_km": 749.7918981996754, "timestamp": "2025-12-14T07:33:19.877318+00:00", "meta": {"OBJECT_NAME": "COSMOS 2251 DEB", "OBJECT_ID": "1993-036BQV", "EPOCH": "2025-12-13T05:00:13.656960", "MEAN_MOTION": 14.39625855, "ECCENTRICITY": 0.00229391, "INCLINATION": 74.0362, "RA_OF_ASC_NODE": 274.8228, "ARG_OF_PERICENTER": 354.1693, "MEAN_ANOMALY": 5.9191, "EPHEMERIS_TYPE": 0, "CLASSIFICATION_TYPE": "U", "NORAD_CAT_ID": 37994, "ELEMENT_SET_NO": 999, "REV_AT_EPOCH": 77071, "BSTAR": 0.00058855198, "MEAN_MOTION_DOT": 1.819e-05, "MEAN_MOTION_DDOT": 0}, "tle": {"line1": "1 37994U 93036BQV 25347.20849140  .00001819  00000+0  58855-3 0  9994", "line2": "2 37994  74.0362 274.8228 0022939 354.1693   5.9191 14.39625855770710"}}, "geometry": {"type": "Point", "coordinates": [-95.79854824795913, -27.526128753928663]}}]}